[{"OBJECT_NAME":"STARLINK-1494","OBJECT_ID":"2020-038AG","EPOCH":"2026-03-09T11:55:54.806304","MEAN_MOTION":15.73709706,"ECCENTRICITY":0.00054124,"INCLINATION":53.048,"RA_OF_ASC_NODE":152.5788,"ARG_OF_PERICENTER":2.9213,"MEAN_ANOMALY":357.1836,"EPHEMERIS_TYPE":0,"CLASSIFICATION_TYPE":"U","NORAD_CAT_ID":45760,"ELEMENT_SET_NO":999,"REV_AT_EPOCH":31736,"BSTAR":0.00067102324,"MEAN_MOTION_DOT":0.00096828,"MEAN_MOTION_DDOT":0},{"OBJECT_NAME":"STARLINK-36403","OBJECT_ID":"2026-016C","EPOCH":"2026-03-09T19:31:58.821600","MEAN_MOTION":15.75229489,"ECCENTRICITY":0.00014634,"INCLINATION":97.2836,"RA_OF_ASC_NODE":129.3209,"ARG_OF_PERICENTER":87.4879,"MEAN_ANOMALY":272.6554,"EPHEMERIS_TYPE":0,"CLASSIFICATION_TYPE":"U","NORAD_CAT_ID":67563,"ELEMENT_SET_NO":999,"REV_AT_EPOCH":682,"BSTAR":0.0014664616,"MEAN_MOTION_DOT":0.00224843,"MEAN_MOTION_DDOT":0}]
