STARLINK-1494           
1 45760U 20038AG  26068.49716211  .00096828  00000+0  67102-3 0  9999
2 45760  53.0480 152.5788 0005412   2.9213 357.1836 15.73709706317367
STARLINK-36403          
1 67563U 26016C   26068.81387524  .00224843  00000+0  14665-2 0  9998
2 67563  97.2836 129.3209 0001463  87.4879 272.6554 15.75229489  6826
